TRANSIT 16 [?]          
1 02807U 67048A   23018.82480167  .00000180  00000+0  26491-3 0  9995
2 02807  89.6579  29.0641 0018585 300.9785 234.5347 13.50353700739839
TRANSIT 17 [?]          
1 02965U 67092A   23018.78085359  .00000177  00000+0  24603-3 0  9997
2 02965  89.2335 106.7664 0049348  71.8776  39.7673 13.53065296727751
TRANSIT 18 [?]          
1 03133U 68012A   23019.20495799  .00000194  00000+0  28057-3 0  9995
2 03133  90.0109 271.7253 0075056 357.8870 119.7808 13.51193786702736
NNSS 19 [?]             
1 04507U 70067A   23019.33158524  .00000216  00000+0  28874-3 0  9992
2 04507  89.9320 237.7804 0173926 118.7562 243.1186 13.50872663579690
NNSS O-20 [?]           
1 06909U 73081A   23019.12183539  .00000384  00000+0  38587-3 0  9998
2 06909  89.8225 273.3665 0156908  11.7112 348.7632 13.70745449658831
TRANSAT [?]             
1 10457U 77106A   23019.48401815  .00000103  00000+0  14866-3 0  9995
2 10457  89.6752 115.5054 0025026   8.8928   0.9361 13.48705919225002
NOVA I [?]              
1 12458U 81044A   23019.28983042  .00000072  00000+0  14888-3 0  9998
2 12458  89.8836 105.2774 0015923 138.4326 284.1660 13.23087963 12166
NOVA 3 [?]              
1 15362U 84110A   23019.42323427  .00000083  00000+0  17823-3 0  9997
2 15362  90.1019  69.0531 0032018  10.5102   0.6817 13.22853762847332
OSCAR 30 [?]            
1 15935U 85066A   23018.93052087  .00000147  00000+0  24959-3 0  9999
2 15935  90.1792  81.6777 0168662 190.0589 343.7383 13.35787781823161
OSCAR 24 [?]            
1 15936U 85066B   23018.87874661  .00000145  00000+0  24743-3 0  9992
2 15936  90.1760  73.5814 0169017 196.0526 338.5845 13.35646682825072
POLAR BEAR [?]          
1 17070U 86088A   23018.83513713  .00000175  00000+0  17005-3 0  9998
2 17070  89.5723 227.8575 0041095  74.9873 295.9935 13.74904783814274
OSCAR 27 [?]            
1 18361U 87080A   23018.80406406  .00000156  00000+0  24549-3 0  9992
2 18361  90.3349  41.4302 0104831  18.0640 342.4188 13.44597217733252
OSCAR 29 [?]            
1 18362U 87080B   23018.79116500  .00000128  00000+0  19838-3 0  9998
2 18362  90.3361  41.7794 0107157  38.6436 134.8572 13.44182609732827
OSCAR 23 [?]            
1 19070U 88033A   23018.88468311  .00000107  00000+0  20268-3 0  9990
2 19070  90.3267 343.6240 0188106 244.5933 168.3178 13.27548200682037
OSCAR 32 [?]            
1 19071U 88033B   23018.92422914  .00000081  00000+0  15010-3 0  9995
2 19071  90.3267 343.7156 0186570 232.1380 182.2649 13.27726916682149
NOVA 11 [?]             
1 19223U 88052A   23018.68690950  .00000096  00000+0  20818-3 0  9993
2 19223  89.9762  80.3464 0032011  54.8153  56.0876 13.22766231669464
OSCAR 25 [?]            
1 19419U 88074A   23019.07527699  .00000176  00000+0  28790-3 0  9993
2 19419  90.0055  18.0282 0097225  27.1502  41.5059 13.42326723684632
OSCAR 31 [?]            
1 19420U 88074B   23018.93668019  .00000139  00000+0  22338-3 0  9992
2 19420  90.0067  18.2276 0095240  21.7575  36.7232 13.42333499684454
